[{"OBJECT_NAME":"ONEWEB-0122","OBJECT_ID":"2020-100L","EPOCH":"2025-10-20T07:03:34.134048","MEAN_MOTION":13.12442534,"ECCENTRICITY":0.0001835,"INCLINATION":87.8965,"RA_OF_ASC_NODE":38.3089,"ARG_OF_PERICENTER":104.7734,"MEAN_ANOMALY":255.3598,"EPHEMERIS_TYPE":0,"CLASSIFICATION_TYPE":"U","NORAD_CAT_ID":47268,"ELEMENT_SET_NO":999,"REV_AT_EPOCH":23308,"BSTAR":0.0009441046,"MEAN_MOTION_DOT":3.52e-6,"MEAN_MOTION_DDOT":0},{"OBJECT_NAME":"ONEWEB-0123","OBJECT_ID":"2020-100M","EPOCH":"2025-10-20T06:56:46.240512","MEAN_MOTION":13.12443293,"ECCENTRICITY":0.0001674,"INCLINATION":87.8962,"RA_OF_ASC_NODE":38.3373,"ARG_OF_PERICENTER":97.2476,"MEAN_ANOMALY":262.8843,"EPHEMERIS_TYPE":0,"CLASSIFICATION_TYPE":"U","NORAD_CAT_ID":47269,"ELEMENT_SET_NO":999,"REV_AT_EPOCH":23322,"BSTAR":0.0011775662,"MEAN_MOTION_DOT":4.36e-6,"MEAN_MOTION_DDOT":0},{"OBJECT_NAME":"ONEWEB-0124","OBJECT_ID":"2020-100N","EPOCH":"2025-10-20T06:40:25.040640","MEAN_MOTION":13.12444541,"ECCENTRICITY":0.00015583,"INCLINATION":87.8966,"RA_OF_ASC_NODE":38.3429,"ARG_OF_PERICENTER":104.1559,"MEAN_ANOMALY":255.9743,"EPHEMERIS_TYPE":0,"CLASSIFICATION_TYPE":"U","NORAD_CAT_ID":47270,"ELEMENT_SET_NO":999,"REV_AT_EPOCH":23310,"BSTAR":0.0011815462,"MEAN_MOTION_DOT":4.38e-6,"MEAN_MOTION_DDOT":0},{"OBJECT_NAME":"ONEWEB-0125","OBJECT_ID":"2020-100P","EPOCH":"2025-10-20T06:07:41.351808","MEAN_MOTION":13.12443075,"ECCENTRICITY":0.00015065,"INCLINATION":87.8966,"RA_OF_ASC_NODE":38.3099,"ARG_OF_PERICENTER":94.3343,"MEAN_ANOMALY":265.7957,"EPHEMERIS_TYPE":0,"CLASSIFICATION_TYPE":"U","NORAD_CAT_ID":47271,"ELEMENT_SET_NO":999,"REV_AT_EPOCH":23316,"BSTAR":-0.0011273096,"MEAN_MOTION_DOT":-3.93e-6,"MEAN_MOTION_DDOT":0},{"OBJECT_NAME":"ONEWEB-0126","OBJECT_ID":"2020-100Q","EPOCH":"2025-10-20T06:38:17.442528","MEAN_MOTION":13.12443397,"ECCENTRICITY":0.00018216,"INCLINATION":87.8966,"RA_OF_ASC_NODE":38.329,"ARG_OF_PERICENTER":100.0591,"MEAN_ANOMALY":260.0744,"EPHEMERIS_TYPE":0,"CLASSIFICATION_TYPE":"U","NORAD_CAT_ID":47272,"ELEMENT_SET_NO":999,"REV_AT_EPOCH":23323,"BSTAR":0.00097066015,"MEAN_MOTION_DOT":3.62e-6,"MEAN_MOTION_DDOT":0},{"OBJECT_NAME":"ONEWEB-0127","OBJECT_ID":"2020-100R","EPOCH":"2025-10-20T07:38:47.466816","MEAN_MOTION":13.12441094,"ECCENTRICITY":0.0001847,"INCLINATION":87.8966,"RA_OF_ASC_NODE":38.3312,"ARG_OF_PERICENTER":102.0166,"MEAN_ANOMALY":258.117,"EPHEMERIS_TYPE":0,"CLASSIFICATION_TYPE":"U","NORAD_CAT_ID":47273,"ELEMENT_SET_NO":999,"REV_AT_EPOCH":23326,"BSTAR":-0.0011462342,"MEAN_MOTION_DOT":-4.0e-6,"MEAN_MOTION_DDOT":0},{"OBJECT_NAME":"ONEWEB-0128","OBJECT_ID":"2020-100S","EPOCH":"2025-10-20T06:21:42.648480","MEAN_MOTION":13.12445309,"ECCENTRICITY":0.00018268,"INCLINATION":87.8956,"RA_OF_ASC_NODE":38.3635,"ARG_OF_PERICENTER":109.0732,"MEAN_ANOMALY":251.0595,"EPHEMERIS_TYPE":0,"CLASSIFICATION_TYPE":"U","NORAD_CAT_ID":47274,"ELEMENT_SET_NO":999,"REV_AT_EPOCH":23327,"BSTAR":0.00012563838,"MEAN_MOTION_DOT":5.8e-7,"MEAN_MOTION_DDOT":0},{"OBJECT_NAME":"ONEWEB-0129","OBJECT_ID":"2020-100T","EPOCH":"2025-10-20T07:41:07.759680","MEAN_MOTION":13.12442226,"ECCENTRICITY":0.00028593,"INCLINATION":87.8966,"RA_OF_ASC_NODE":38.2999,"ARG_OF_PERICENTER":95.6881,"MEAN_ANOMALY":264.4573,"EPHEMERIS_TYPE":0,"CLASSIFICATION_TYPE":"U","NORAD_CAT_ID":47275,"ELEMENT_SET_NO":999,"REV_AT_EPOCH":23321,"BSTAR":-0.0013390822,"MEAN_MOTION_DOT":-4.69e-6,"MEAN_MOTION_DDOT":0},{"OBJECT_NAME":"ONEWEB-0130","OBJECT_ID":"2020-100U","EPOCH":"2025-10-20T06:31:04.287360","MEAN_MOTION":13.12443961,"ECCENTRICITY":0.00017953,"INCLINATION":87.8965,"RA_OF_ASC_NODE":38.306,"ARG_OF_PERICENTER":104.2631,"MEAN_ANOMALY":255.8697,"EPHEMERIS_TYPE":0,"CLASSIFICATION_TYPE":"U","NORAD_CAT_ID":47276,"ELEMENT_SET_NO":999,"REV_AT_EPOCH":23317,"BSTAR":0.00071347935,"MEAN_MOTION_DOT":2.69e-6,"MEAN_MOTION_DDOT":0},{"OBJECT_NAME":"ONEWEB-0131","OBJECT_ID":"2020-100V","EPOCH":"2025-10-20T06:26:24.140544","MEAN_MOTION":13.1244416,"ECCENTRICITY":0.00017338,"INCLINATION":87.8965,"RA_OF_ASC_NODE":38.3366,"ARG_OF_PERICENTER":103.8947,"MEAN_ANOMALY":256.2375,"EPHEMERIS_TYPE":0,"CLASSIFICATION_TYPE":"U","NORAD_CAT_ID":47277,"ELEMENT_SET_NO":999,"REV_AT_EPOCH":23321,"BSTAR":0.00021618606,"MEAN_MOTION_DOT":9.0e-7,"MEAN_MOTION_DDOT":0},{"OBJECT_NAME":"ONEWEB-0132","OBJECT_ID":"2020-100W","EPOCH":"2025-10-20T07:08:26.418336","MEAN_MOTION":13.1244331,"ECCENTRICITY":0.00017005,"INCLINATION":87.8964,"RA_OF_ASC_NODE":38.3326,"ARG_OF_PERICENTER":102.5542,"MEAN_ANOMALY":257.5777,"EPHEMERIS_TYPE":0,"CLASSIFICATION_TYPE":"U","NORAD_CAT_ID":47278,"ELEMENT_SET_NO":999,"REV_AT_EPOCH":23311,"BSTAR":0.00079149567,"MEAN_MOTION_DOT":2.97e-6,"MEAN_MOTION_DDOT":0},{"OBJECT_NAME":"ONEWEB-0133","OBJECT_ID":"2020-100X","EPOCH":"2025-10-20T07:31:35.654304","MEAN_MOTION":13.12442901,"ECCENTRICITY":0.00016789,"INCLINATION":87.8953,"RA_OF_ASC_NODE":38.2945,"ARG_OF_PERICENTER":107.0653,"MEAN_ANOMALY":253.066,"EPHEMERIS_TYPE":0,"CLASSIFICATION_TYPE":"U","NORAD_CAT_ID":47279,"ELEMENT_SET_NO":999,"REV_AT_EPOCH":23327,"BSTAR":-0.0007382284,"MEAN_MOTION_DOT":-2.53e-6,"MEAN_MOTION_DDOT":0},{"OBJECT_NAME":"ONEWEB-0134","OBJECT_ID":"2020-100Y","EPOCH":"2025-10-20T06:47:25.395648","MEAN_MOTION":13.1244374,"ECCENTRICITY":0.00019109,"INCLINATION":87.8966,"RA_OF_ASC_NODE":38.2923,"ARG_OF_PERICENTER":106.9887,"MEAN_ANOMALY":253.1451,"EPHEMERIS_TYPE":0,"CLASSIFICATION_TYPE":"U","NORAD_CAT_ID":47280,"ELEMENT_SET_NO":999,"REV_AT_EPOCH":23324,"BSTAR":0.0012125493,"MEAN_MOTION_DOT":4.49e-6,"MEAN_MOTION_DDOT":0},{"OBJECT_NAME":"ONEWEB-0135","OBJECT_ID":"2020-100Z","EPOCH":"2025-10-20T06:05:22.278912","MEAN_MOTION":13.12444002,"ECCENTRICITY":0.00019309,"INCLINATION":87.8964,"RA_OF_ASC_NODE":38.3384,"ARG_OF_PERICENTER":113.8263,"MEAN_ANOMALY":246.3068,"EPHEMERIS_TYPE":0,"CLASSIFICATION_TYPE":"U","NORAD_CAT_ID":47281,"ELEMENT_SET_NO":999,"REV_AT_EPOCH":23326,"BSTAR":-0.00085439907,"MEAN_MOTION_DOT":-2.95e-6,"MEAN_MOTION_DDOT":0},{"OBJECT_NAME":"ONEWEB-0136","OBJECT_ID":"2020-100AA","EPOCH":"2025-10-20T06:33:24.581088","MEAN_MOTION":13.124448,"ECCENTRICITY":0.00020847,"INCLINATION":87.8966,"RA_OF_ASC_NODE":38.3032,"ARG_OF_PERICENTER":108.6629,"MEAN_ANOMALY":251.4726,"EPHEMERIS_TYPE":0,"CLASSIFICATION_TYPE":"U","NORAD_CAT_ID":47282,"ELEMENT_SET_NO":999,"REV_AT_EPOCH":23319,"BSTAR":0.00078450614,"MEAN_MOTION_DOT":2.95e-6,"MEAN_MOTION_DDOT":0},{"OBJECT_NAME":"ONEWEB-0137","OBJECT_ID":"2020-100AB","EPOCH":"2025-10-20T07:22:26.853600","MEAN_MOTION":13.12440534,"ECCENTRICITY":0.00017661,"INCLINATION":87.8963,"RA_OF_ASC_NODE":38.3021,"ARG_OF_PERICENTER":94.9692,"MEAN_ANOMALY":265.1638,"EPHEMERIS_TYPE":0,"CLASSIFICATION_TYPE":"U","NORAD_CAT_ID":47283,"ELEMENT_SET_NO":999,"REV_AT_EPOCH":23310,"BSTAR":-0.00035657746,"MEAN_MOTION_DOT":-1.16e-6,"MEAN_MOTION_DDOT":0}]
