ONEWEB-0122             
1 47268U 20100L   25293.29414507  .00000352  00000+0  94410-3 0  9993
2 47268  87.8965  38.3089 0001835 104.7734 255.3598 13.12442534233088
ONEWEB-0123             
1 47269U 20100M   25293.28942408  .00000436  00000+0  11776-2 0  9995
2 47269  87.8962  38.3373 0001674  97.2476 262.8843 13.12443293233227
ONEWEB-0124             
1 47270U 20100N   25293.27806760  .00000438  00000+0  11815-2 0  9992
2 47270  87.8966  38.3429 0001558 104.1559 255.9743 13.12444541233102
ONEWEB-0125             
1 47271U 20100P   25293.25533972 -.00000393  00000+0 -11273-2 0  9993
2 47271  87.8966  38.3099 0001506  94.3343 265.7957 13.12443075233163
ONEWEB-0126             
1 47272U 20100Q   25293.27659077  .00000362  00000+0  97066-3 0  9990
2 47272  87.8966  38.3290 0001821 100.0591 260.0744 13.12443397233234
ONEWEB-0127             
1 47273U 20100R   25293.31860494 -.00000400  00000+0 -11462-2 0  9993
2 47273  87.8966  38.3312 0001847 102.0166 258.1170 13.12441094233264
ONEWEB-0128             
1 47274U 20100S   25293.26507695  .00000058  00000+0  12564-3 0  9991
2 47274  87.8956  38.3635 0001826 109.0732 251.0595 13.12445309233272
ONEWEB-0129             
1 47275U 20100T   25293.32022870 -.00000469  00000+0 -13391-2 0  9992
2 47275  87.8966  38.2999 0002859  95.6881 264.4573 13.12442226233211
ONEWEB-0130             
1 47276U 20100U   25293.27157740  .00000269  00000+0  71348-3 0  9995
2 47276  87.8965  38.3060 0001795 104.2631 255.8697 13.12443961233172
ONEWEB-0131             
1 47277U 20100V   25293.26833496  .00000090  00000+0  21619-3 0  9992
2 47277  87.8965  38.3366 0001733 103.8947 256.2375 13.12444160233214
ONEWEB-0132             
1 47278U 20100W   25293.29752799  .00000297  00000+0  79150-3 0  9994
2 47278  87.8964  38.3326 0001700 102.5542 257.5777 13.12443310233116
ONEWEB-0133             
1 47279U 20100X   25293.31360711 -.00000253  00000+0 -73823-3 0  9992
2 47279  87.8953  38.2945 0001678 107.0653 253.0660 13.12442901233272
ONEWEB-0134             
1 47280U 20100Y   25293.28293282  .00000449  00000+0  12125-2 0  9990
2 47280  87.8966  38.2923 0001910 106.9887 253.1451 13.12443740233248
ONEWEB-0135             
1 47281U 20100Z   25293.25373008 -.00000295  00000+0 -85440-3 0  9995
2 47281  87.8964  38.3384 0001930 113.8263 246.3068 13.12444002233268
ONEWEB-0136             
1 47282U 20100AA  25293.27320117  .00000295  00000+0  78451-3 0  9993
2 47282  87.8966  38.3032 0002084 108.6629 251.4726 13.12444800233196
ONEWEB-0137             
1 47283U 20100AB  25293.30725525 -.00000116  00000+0 -35658-3 0  9996
2 47283  87.8963  38.3021 0001766  94.9692 265.1638 13.12440534233100
